{
  "type": "FeatureCollection",
  "features": [
    {
      "type": "Feature",
      "properties": {
        "norad_id": 24876,
        "name": "GPS BIIR-2  (PRN 13)",
        "group": "gps-ops",
        "lat": 31.409371920714424,
        "lon": -98.87573358475517,
        "alt_km": 20149.596173943108,
        "timestamp": "2025-12-21T09:37:22.913272+00:00",
        "meta_object_name": "GPS BIIR-2  (PRN 13)",
        "meta_object_id": "1997-035A",
        "meta_epoch": "2025-12-21T05:00:18.122112",
        "meta_mean_motion": 2.00563754,
        "meta_eccentricity": 0.009682,
        "meta_inclination": 55.8993,
        "meta_ra_of_asc_node": 105.5377,
        "meta_arg_of_pericenter": 56.9664,
        "meta_mean_anomaly": 303.9402,
        "meta_ephemeris_type": 0,
        "meta_classification_type": "U",
        "meta_norad_cat_id": 24876,
        "meta_element_set_no": 999,
        "meta_rev_at_epoch": 20838,
        "meta_bstar": 0,
        "meta_mean_motion_dot": 2e-08,
        "meta_mean_motion_ddot": 0,
        "tle_line1": "1 24876U 97035A   25355.20854308  .00000002  00000+0  00000+0 0  9991",
        "tle_line2": "2 24876  55.8993 105.5377 0096820  56.9664 303.9402  2.00563754208381"
      },
      "geometry": {
        "type": "Point",
        "coordinates": [
          -98.87573358475517,
          31.409371920714424
        ]
      }
    },
    {
      "type": "Feature",
      "properties": {
        "norad_id": 26360,
        "name": "GPS BIIR-4  (PRN 20)",
        "group": "gps-ops",
        "lat": -40.08551115804351,
        "lon": -117.45022882296827,
        "alt_km": 20085.03563187263,
        "timestamp": "2025-12-21T09:37:22.913302+00:00",
        "meta_object_name": "GPS BIIR-4  (PRN 20)",
        "meta_object_id": "2000-025A",
        "meta_epoch": "2025-12-21T02:11:31.456320",
        "meta_mean_motion": 2.00567058,
        "meta_eccentricity": 0.003889,
        "meta_inclination": 55.0501,
        "meta_ra_of_asc_node": 26.5001,
        "meta_arg_of_pericenter": 242.7753,
        "meta_mean_anomaly": 125.5477,
        "meta_ephemeris_type": 0,
        "meta_classification_type": "U",
        "meta_norad_cat_id": 26360,
        "meta_element_set_no": 999,
        "meta_rev_at_epoch": 18770,
        "meta_bstar": 0,
        "meta_mean_motion_dot": -6.3e-07,
        "meta_mean_motion_ddot": 0,
        "tle_line1": "1 26360U 00025A   25355.09133630 -.00000063  00000+0  00000+0 0  9997",
        "tle_line2": "2 26360  55.0501  26.5001 0038890 242.7753 125.5477  2.00567058187704"
      },
      "geometry": {
        "type": "Point",
        "coordinates": [
          -117.45022882296827,
          -40.08551115804351
        ]
      }
    },
    {
      "type": "Feature",
      "properties": {
        "norad_id": 26407,
        "name": "GPS BIIR-5  (PRN 22)",
        "group": "gps-ops",
        "lat": 51.297387817503896,
        "lon": -76.37976404145742,
        "alt_km": 20389.96335971044,
        "timestamp": "2025-12-21T09:37:22.913319+00:00",
        "meta_object_name": "GPS BIIR-5  (PRN 22)",
        "meta_object_id": "2000-040A",
        "meta_epoch": "2025-12-21T01:01:32.978784",
        "meta_mean_motion": 2.00568107,
        "meta_eccentricity": 0.0125556,
        "meta_inclination": 54.889,
        "meta_ra_of_asc_node": 222.2388,
        "meta_arg_of_pericenter": 301.9496,
        "meta_mean_anomaly": 230.9465,
        "meta_ephemeris_type": 0,
        "meta_classification_type": "U",
        "meta_norad_cat_id": 26407,
        "meta_element_set_no": 999,
        "meta_rev_at_epoch": 18637,
        "meta_bstar": 0,
        "meta_mean_motion_dot": 7.2e-07,
        "meta_mean_motion_ddot": 0,
        "tle_line1": "1 26407U 00040A   25355.04274281  .00000072  00000+0  00000+0 0  9998",
        "tle_line2": "2 26407  54.8890 222.2388 0125556 301.9496 230.9465  2.00568107186371"
      },
      "geometry": {
        "type": "Point",
        "coordinates": [
          -76.37976404145742,
          51.297387817503896
        ]
      }
    },
    {
      "type": "Feature",
      "properties": {
        "norad_id": 27663,
        "name": "GPS BIIR-8  (PRN 16)",
        "group": "gps-ops",
        "lat": -22.717944116785773,
        "lon": 59.15239683402528,
        "alt_km": 20543.256726077885,
        "timestamp": "2025-12-21T09:37:22.913334+00:00",
        "meta_object_name": "GPS BIIR-8  (PRN 16)",
        "meta_object_id": "2003-005A",
        "meta_epoch": "2025-12-20T15:07:28.763328",
        "meta_mean_motion": 2.00570507,
        "meta_eccentricity": 0.0147742,
        "meta_inclination": 54.9216,
        "meta_ra_of_asc_node": 222.0644,
        "meta_arg_of_pericenter": 51.9121,
        "meta_mean_anomaly": 319.0535,
        "meta_ephemeris_type": 0,
        "meta_classification_type": "U",
        "meta_norad_cat_id": 27663,
        "meta_element_set_no": 999,
        "meta_rev_at_epoch": 16773,
        "meta_bstar": 0,
        "meta_mean_motion_dot": 7.3e-07,
        "meta_mean_motion_ddot": 0,
        "tle_line1": "1 27663U 03005A   25354.63019402  .00000073  00000+0  00000+0 0  9994",
        "tle_line2": "2 27663  54.9216 222.0644 0147742  51.9121 319.0535  2.00570507167733"
      },
      "geometry": {
        "type": "Point",
        "coordinates": [
          59.15239683402528,
          -22.717944116785773
        ]
      }
    },
    {
      "type": "Feature",
      "properties": {
        "norad_id": 28190,
        "name": "GPS BIIR-11 (PRN 19)",
        "group": "gps-ops",
        "lat": 4.510738145329138,
        "lon": -73.97675017736532,
        "alt_km": 20456.648838396493,
        "timestamp": "2025-12-21T09:37:22.913347+00:00",
        "meta_object_name": "GPS BIIR-11 (PRN 19)",
        "meta_object_id": "2004-009A",
        "meta_epoch": "2025-12-20T02:10:39.105696",
        "meta_mean_motion": 2.00560582,
        "meta_eccentricity": 0.01084506,
        "meta_inclination": 54.979,
        "meta_ra_of_asc_node": 282.9228,
        "meta_arg_of_pericenter": 167.7566,
        "meta_mean_anomaly": 332.1268,
        "meta_ephemeris_type": 0,
        "meta_classification_type": "U",
        "meta_norad_cat_id": 28190,
        "meta_element_set_no": 999,
        "meta_rev_at_epoch": 15935,
        "meta_bstar": 0,
        "meta_mean_motion_dot": -3.4e-07,
        "meta_mean_motion_ddot": 0,
        "tle_line1": "1 28190U 04009A   25354.09073039 -.00000034  00000+0  00000+0 0  9999",
        "tle_line2": "2 28190  54.9790 282.9228 0108450 167.7566 332.1268  2.00560582159351"
      },
      "geometry": {
        "type": "Point",
        "coordinates": [
          -73.97675017736532,
          4.510738145329138
        ]
      }
    },
    {
      "type": "Feature",
      "properties": {
        "norad_id": 28474,
        "name": "GPS BIIR-13 (PRN 02)",
        "group": "gps-ops",
        "lat": 49.62491684577285,
        "lon": 26.779051590374007,
        "alt_km": 20386.852362956957,
        "timestamp": "2025-12-21T09:37:22.913360+00:00",
        "meta_object_name": "GPS BIIR-13 (PRN 02)",
        "meta_object_id": "2004-045A",
        "meta_epoch": "2025-12-20T07:31:09.755904",
        "meta_mean_motion": 2.00569954,
        "meta_eccentricity": 0.01709047,
        "meta_inclination": 55.2369,
        "meta_ra_of_asc_node": 332.1012,
        "meta_arg_of_pericenter": 309.5849,
        "meta_mean_anomaly": 51.3395,
        "meta_ephemeris_type": 0,
        "meta_classification_type": "U",
        "meta_norad_cat_id": 28474,
        "meta_element_set_no": 999,
        "meta_rev_at_epoch": 15484,
        "meta_bstar": 0,
        "meta_mean_motion_dot": -7.7e-07,
        "meta_mean_motion_ddot": 0,
        "tle_line1": "1 28474U 04045A   25354.31330736 -.00000077  00000+0  00000+0 0  9996",
        "tle_line2": "2 28474  55.2369 332.1012 0170904 309.5849  51.3395  2.00569954154846"
      },
      "geometry": {
        "type": "Point",
        "coordinates": [
          26.779051590374007,
          49.62491684577285
        ]
      }
    },
    {
      "type": "Feature",
      "properties": {
        "norad_id": 28874,
        "name": "GPS BIIRM-1 (PRN 17)",
        "group": "gps-ops",
        "lat": 21.792732719993293,
        "lon": -63.43125987583708,
        "alt_km": 20192.56033090916,
        "timestamp": "2025-12-21T09:37:22.913372+00:00",
        "meta_object_name": "GPS BIIRM-1 (PRN 17)",
        "meta_object_id": "2005-038A",
        "meta_epoch": "2025-12-21T00:50:49.977024",
        "meta_mean_motion": 2.00577927,
        "meta_eccentricity": 0.0131381,
        "meta_inclination": 55.0245,
        "meta_ra_of_asc_node": 280.367,
        "meta_arg_of_pericenter": 293.7438,
        "meta_mean_anomaly": 187.6731,
        "meta_ephemeris_type": 0,
        "meta_classification_type": "U",
        "meta_norad_cat_id": 28874,
        "meta_element_set_no": 999,
        "meta_rev_at_epoch": 14826,
        "meta_bstar": 0,
        "meta_mean_motion_dot": -2.4e-07,
        "meta_mean_motion_ddot": 0,
        "tle_line1": "1 28874U 05038A   25355.03530066 -.00000024  00000+0  00000+0 0  9993",
        "tle_line2": "2 28874  55.0245 280.3670 0131381 293.7438 187.6731  2.00577927148264"
      },
      "geometry": {
        "type": "Point",
        "coordinates": [
          -63.43125987583708,
          21.792732719993293
        ]
      }
    }
  ]
}